{
  "type": "FeatureCollection",
  "features": [
    {
      "type": "Feature",
      "properties": {
        "norad_id": 66477,
        "name": "STARLINK-35354",
        "group": "last-30-days",
        "lat": -42.979172327196494,
        "lon": 2.6042026297172547,
        "alt_km": 417.62685599732686,
        "timestamp": "2025-12-08T23:34:02.739045+00:00",
        "meta_object_name": "STARLINK-35354",
        "meta_object_id": "2025-262X",
        "meta_epoch": "2025-12-08T14:00:01.999872",
        "meta_mean_motion": 15.50630292,
        "meta_eccentricity": 0.00011177,
        "meta_inclination": 43.0003,
        "meta_ra_of_asc_node": 95.3328,
        "meta_arg_of_pericenter": 250.525,
        "meta_mean_anomaly": 311.3381,
        "meta_ephemeris_type": 0,
        "meta_classification_type": "U",
        "meta_norad_cat_id": 66477,
        "meta_element_set_no": 999,
        "meta_rev_at_epoch": 497,
        "meta_bstar": -0.00078579797,
        "meta_mean_motion_dot": -0.00046252,
        "meta_mean_motion_ddot": 0,
        "tle_line1": "1 66477U 25262X   25342.58335648 -.00046252  00000+0 -78580-3 0  9996",
        "tle_line2": "2 66477  43.0003  95.3328 0001117 250.5250 311.3381 15.50630292  4974"
      },
      "geometry": {
        "type": "Point",
        "coordinates": [
          2.6042026297172547,
          -42.979172327196494
        ]
      }
    },
    {
      "type": "Feature",
      "properties": {
        "norad_id": 66478,
        "name": "STARLINK-35283",
        "group": "last-30-days",
        "lat": -42.95647181037802,
        "lon": 5.313186196513128,
        "alt_km": 417.6271338443494,
        "timestamp": "2025-12-08T23:34:02.739055+00:00",
        "meta_object_name": "STARLINK-35283",
        "meta_object_id": "2025-262Y",
        "meta_epoch": "2025-12-08T14:00:01.999872",
        "meta_mean_motion": 15.50632484,
        "meta_eccentricity": 0.00013195,
        "meta_inclination": 43.0003,
        "meta_ra_of_asc_node": 95.3277,
        "meta_arg_of_pericenter": 270.1167,
        "meta_mean_anomaly": 293.7825,
        "meta_ephemeris_type": 0,
        "meta_classification_type": "U",
        "meta_norad_cat_id": 66478,
        "meta_element_set_no": 999,
        "meta_rev_at_epoch": 497,
        "meta_bstar": -0.0021578606,
        "meta_mean_motion_dot": -0.00125167,
        "meta_mean_motion_ddot": 0,
        "tle_line1": "1 66478U 25262Y   25342.58335648 -.00125167  00000+0 -21579-2 0  9995",
        "tle_line2": "2 66478  43.0003  95.3277 0001319 270.1167 293.7825 15.50632484  4978"
      },
      "geometry": {
        "type": "Point",
        "coordinates": [
          5.313186196513128,
          -42.95647181037802
        ]
      }
    },
    {
      "type": "Feature",
      "properties": {
        "norad_id": 66479,
        "name": "STARLINK-35581",
        "group": "last-30-days",
        "lat": -42.94611965341058,
        "lon": 0.21717738278444884,
        "alt_km": 417.8559928592358,
        "timestamp": "2025-12-08T23:34:02.739066+00:00",
        "meta_object_name": "STARLINK-35581",
        "meta_object_id": "2025-262Z",
        "meta_epoch": "2025-12-08T14:00:01.999872",
        "meta_mean_motion": 15.5072679,
        "meta_eccentricity": 0.00012007,
        "meta_inclination": 43.0004,
        "meta_ra_of_asc_node": 95.3372,
        "meta_arg_of_pericenter": 271.5486,
        "meta_mean_anomaly": 288.5835,
        "meta_ephemeris_type": 0,
        "meta_classification_type": "U",
        "meta_norad_cat_id": 66479,
        "meta_element_set_no": 999,
        "meta_rev_at_epoch": 497,
        "meta_bstar": -0.0054098529,
        "meta_mean_motion_dot": -0.00307188,
        "meta_mean_motion_ddot": 0,
        "tle_line1": "1 66479U 25262Z   25342.58335648 -.00307188  00000+0 -54099-2 0  9994",
        "tle_line2": "2 66479  43.0004  95.3372 0001200 271.5486 288.5835 15.50726790  4971"
      },
      "geometry": {
        "type": "Point",
        "coordinates": [
          0.21717738278444884,
          -42.94611965341058
        ]
      }
    },
    {
      "type": "Feature",
      "properties": {
        "norad_id": 66480,
        "name": "STARLINK-35670",
        "group": "last-30-days",
        "lat": -42.87452562123758,
        "lon": 7.905164329465599,
        "alt_km": 417.5729221751135,
        "timestamp": "2025-12-08T23:34:02.739076+00:00",
        "meta_object_name": "STARLINK-35670",
        "meta_object_id": "2025-262AA",
        "meta_epoch": "2025-12-08T14:00:01.999872",
        "meta_mean_motion": 15.50571016,
        "meta_eccentricity": 0.00013719,
        "meta_inclination": 43.0002,
        "meta_ra_of_asc_node": 95.3229,
        "meta_arg_of_pericenter": 272.712,
        "meta_mean_anomaly": 293.1312,
        "meta_ephemeris_type": 0,
        "meta_classification_type": "U",
        "meta_norad_cat_id": 66480,
        "meta_element_set_no": 999,
        "meta_rev_at_epoch": 497,
        "meta_bstar": -0.00063913755,
        "meta_mean_motion_dot": -0.00037646,
        "meta_mean_motion_ddot": 0,
        "tle_line1": "1 66480U 25262AA  25342.58335648 -.00037646  00000+0 -63914-3 0  9992",
        "tle_line2": "2 66480  43.0002  95.3229 0001371 272.7120 293.1312 15.50571016  4970"
      },
      "geometry": {
        "type": "Point",
        "coordinates": [
          7.905164329465599,
          -42.87452562123758
        ]
      }
    },
    {
      "type": "Feature",
      "properties": {
        "norad_id": 66481,
        "name": "STARLINK-35698",
        "group": "last-30-days",
        "lat": -42.73282595878981,
        "lon": 10.510396714741777,
        "alt_km": 417.4981792962426,
        "timestamp": "2025-12-08T23:34:02.739088+00:00",
        "meta_object_name": "STARLINK-35698",
        "meta_object_id": "2025-262AB",
        "meta_epoch": "2025-12-08T14:00:01.999872",
        "meta_mean_motion": 15.50612502,
        "meta_eccentricity": 0.0001478,
        "meta_inclination": 43.0004,
        "meta_ra_of_asc_node": 95.317,
        "meta_arg_of_pericenter": 272.4831,
        "meta_mean_anomaly": 295.2566,
        "meta_ephemeris_type": 0,
        "meta_classification_type": "U",
        "meta_norad_cat_id": 66481,
        "meta_element_set_no": 999,
        "meta_rev_at_epoch": 497,
        "meta_bstar": -0.0016122535,
        "meta_mean_motion_dot": -0.00093911,
        "meta_mean_motion_ddot": 0,
        "tle_line1": "1 66481U 25262AB  25342.58335648 -.00093911  00000+0 -16123-2 0  9999",
        "tle_line2": "2 66481  43.0004  95.3170 0001478 272.4831 295.2566 15.50612502  4972"
      },
      "geometry": {
        "type": "Point",
        "coordinates": [
          10.510396714741777,
          -42.73282595878981
        ]
      }
    },
    {
      "type": "Feature",
      "properties": {
        "norad_id": 66482,
        "name": "STARLINK-35648",
        "group": "last-30-days",
        "lat": -42.532638207486436,
        "lon": 13.092265507195503,
        "alt_km": 417.5933150856299,
        "timestamp": "2025-12-08T23:34:02.739098+00:00",
        "meta_object_name": "STARLINK-35648",
        "meta_object_id": "2025-262AC",
        "meta_epoch": "2025-12-08T14:00:01.999872",
        "meta_mean_motion": 15.50612112,
        "meta_eccentricity": 0.00013211,
        "meta_inclination": 43.0002,
        "meta_ra_of_asc_node": 95.3124,
        "meta_arg_of_pericenter": 270.8837,
        "meta_mean_anomaly": 298.7702,
        "meta_ephemeris_type": 0,
        "meta_classification_type": "U",
        "meta_norad_cat_id": 66482,
        "meta_element_set_no": 999,
        "meta_rev_at_epoch": 481,
        "meta_bstar": -0.0015590477,
        "meta_mean_motion_dot": -0.00090855,
        "meta_mean_motion_ddot": 0,
        "tle_line1": "1 66482U 25262AC  25342.58335648 -.00090855  00000+0 -15590-2 0  9991",
        "tle_line2": "2 66482  43.0002  95.3124 0001321 270.8837 298.7702 15.50612112  4815"
      },
      "geometry": {
        "type": "Point",
        "coordinates": [
          13.092265507195503,
          -42.532638207486436
        ]
      }
    },
    {
      "type": "Feature",
      "properties": {
        "norad_id": 66483,
        "name": "STARLINK-35654",
        "group": "last-30-days",
        "lat": -42.274426652218196,
        "lon": 15.659340772826704,
        "alt_km": 417.52811018665943,
        "timestamp": "2025-12-08T23:34:02.739109+00:00",
        "meta_object_name": "STARLINK-35654",
        "meta_object_id": "2025-262AD",
        "meta_epoch": "2025-12-08T14:00:01.999872",
        "meta_mean_motion": 15.50609538,
        "meta_eccentricity": 0.00014107,
        "meta_inclination": 43.0003,
        "meta_ra_of_asc_node": 95.3068,
        "meta_arg_of_pericenter": 272.0373,
        "meta_mean_anomaly": 299.5394,
        "meta_ephemeris_type": 0,
        "meta_classification_type": "U",
        "meta_norad_cat_id": 66483,
        "meta_element_set_no": 999,
        "meta_rev_at_epoch": 497,
        "meta_bstar": -0.0015363467,
        "meta_mean_motion_dot": -0.00089545,
        "meta_mean_motion_ddot": 0,
        "tle_line1": "1 66483U 25262AD  25342.58335648 -.00089545  00000+0 -15363-2 0  9994",
        "tle_line2": "2 66483  43.0003  95.3068 0001410 272.0373 299.5394 15.50609538  4973"
      },
      "geometry": {
        "type": "Point",
        "coordinates": [
          15.659340772826704,
          -42.274426652218196
        ]
      }
    }
  ]
}